STARLINK-11423 [DTC]    
1 61950U 24209M   26025.94057149  .00257365  00000+0  20551-2 0  9994
2 61950  53.1573 222.0020 0000621  34.8908 325.2151 15.69812682 70000
STARLINK-11395 [DTC]    
1 61951U 24209N   26025.93565881  .00243063  00000+0  19456-2 0  9993
2 61951  53.1606 221.9656 0001279 260.3074  99.7799 15.69800892 69965
STARLINK-32572          
1 61952U 24209P   26025.60740924  .00050151  00000+0  16934-2 0  9993
2 61952  53.1604 342.3165 0001427  89.6331 270.4833 15.30211826 68305
STARLINK-32585          
1 61953U 24209Q   26025.90665104  .00048184  00000+0  16254-2 0  9991
2 61953  53.1610 341.3376 0001430  96.1984 263.9180 15.30259907 68345
STARLINK-32574          
1 61954U 24209R   26025.19874929  .00046392  00000+0  15691-2 0  9993
2 61954  53.1619 344.7409 0001111  62.2469 297.8644 15.30191092 68258
STARLINK-32583          
1 61955U 24209S   26025.90031414  .00047311  00000+0  15974-2 0  9993
2 61955  53.1597 341.2960 0004588 312.2081  47.8530 15.30233512 68360
STARLINK-32273          
1 61956U 24209T   26025.87393708  .00038523  00000+0  13046-2 0  9990
2 61956  53.1599 341.1306 0001387  98.5467 261.5691 15.30234907 68342
STARLINK-32359          
1 61957U 24209U   26025.89398762  .00042329  00000+0  14317-2 0  9999
2 61957  53.1601 341.2606 0001109  89.8396 270.2732 15.30233648 68363
STARLINK-32566          
1 61958U 24209V   26025.15231577  .00039699  00000+0  13457-2 0  9999
2 61958  53.1613 344.4502 0001438  88.2667 271.8498 15.30190435 68256
STARLINK-32499          
1 61959U 24210A   26025.52822836  .00032949  00000+0  12012-2 0  9994
2 61959  42.9976  63.1778 0000403  98.1242 261.9656 15.27588024 68320
STARLINK-32372          
1 61960U 24210B   26025.47055401 -.00015759  00000+0 -56501-3 0  9990
2 61960  42.9993  63.6076 0001234  38.3966 321.6974 15.27541568 68171
STARLINK-32452          
1 61961U 24210C   26025.48051726  .00042330  00000+0  15378-2 0  9997
2 61961  43.0008  56.7572 0001891  77.4406 282.6658 15.27603693 68383
STARLINK-32458          
1 61962U 24210D   26024.47497146  .00018062  00000+0  66384-3 0  9995
2 61962  43.0005  55.1870 0000933 250.3292 109.7459 15.27600926 68313
STARLINK-32487          
1 61963U 24210E   26025.50009142  .00062859  00000+0  22716-2 0  9999
2 61963  43.0031  63.8216 0000807 279.1141  80.9620 15.27619976 68309
STARLINK-32513          
1 61964U 24210F   26025.05188842  .00032652  00000+0  11901-2 0  9997
2 61964  42.9996  51.7733 0000649  67.2583 292.8337 15.27600885 68407
STARLINK-32514          
1 61965U 24210G   26025.41897481  .00036134  00000+0  13158-2 0  9999
2 61965  43.0018  57.1555 0001122 251.2298 108.8432 15.27589568 68374
