[{"OBJECT_NAME":"STARLINK-11423 [DTC]","OBJECT_ID":"2024-209M","EPOCH":"2026-01-25T22:34:25.376736","MEAN_MOTION":15.69812682,"ECCENTRICITY":6.216e-5,"INCLINATION":53.1573,"RA_OF_ASC_NODE":222.002,"ARG_OF_PERICENTER":34.8908,"MEAN_ANOMALY":325.2151,"EPHEMERIS_TYPE":0,"CLASSIFICATION_TYPE":"U","NORAD_CAT_ID":61950,"ELEMENT_SET_NO":999,"REV_AT_EPOCH":7000,"BSTAR":0.0020551308,"MEAN_MOTION_DOT":0.00257365,"MEAN_MOTION_DDOT":0},{"OBJECT_NAME":"STARLINK-11395 [DTC]","OBJECT_ID":"2024-209N","EPOCH":"2026-01-25T22:27:20.921184","MEAN_MOTION":15.69800892,"ECCENTRICITY":0.00012794,"INCLINATION":53.1606,"RA_OF_ASC_NODE":221.9656,"ARG_OF_PERICENTER":260.3074,"MEAN_ANOMALY":99.7799,"EPHEMERIS_TYPE":0,"CLASSIFICATION_TYPE":"U","NORAD_CAT_ID":61951,"ELEMENT_SET_NO":999,"REV_AT_EPOCH":6996,"BSTAR":0.0019455746,"MEAN_MOTION_DOT":0.00243063,"MEAN_MOTION_DDOT":0},{"OBJECT_NAME":"STARLINK-32572","OBJECT_ID":"2024-209P","EPOCH":"2026-01-25T14:34:40.158336","MEAN_MOTION":15.30211826,"ECCENTRICITY":0.0001427,"INCLINATION":53.1604,"RA_OF_ASC_NODE":342.3165,"ARG_OF_PERICENTER":89.6331,"MEAN_ANOMALY":270.4833,"EPHEMERIS_TYPE":0,"CLASSIFICATION_TYPE":"U","NORAD_CAT_ID":61952,"ELEMENT_SET_NO":999,"REV_AT_EPOCH":6830,"BSTAR":0.0016934,"MEAN_MOTION_DOT":0.00050151,"MEAN_MOTION_DDOT":0},{"OBJECT_NAME":"STARLINK-32585","OBJECT_ID":"2024-209Q","EPOCH":"2026-01-25T21:45:34.649856","MEAN_MOTION":15.30259907,"ECCENTRICITY":0.00014308,"INCLINATION":53.161,"RA_OF_ASC_NODE":341.3376,"ARG_OF_PERICENTER":96.1984,"MEAN_ANOMALY":263.918,"EPHEMERIS_TYPE":0,"CLASSIFICATION_TYPE":"U","NORAD_CAT_ID":61953,"ELEMENT_SET_NO":999,"REV_AT_EPOCH":6834,"BSTAR":0.0016254296,"MEAN_MOTION_DOT":0.00048184,"MEAN_MOTION_DDOT":0},{"OBJECT_NAME":"STARLINK-32574","OBJECT_ID":"2024-209R","EPOCH":"2026-01-25T04:46:11.938656","MEAN_MOTION":15.30191092,"ECCENTRICITY":0.0001111,"INCLINATION":53.1619,"RA_OF_ASC_NODE":344.7409,"ARG_OF_PERICENTER":62.2469,"MEAN_ANOMALY":297.8644,"EPHEMERIS_TYPE":0,"CLASSIFICATION_TYPE":"U","NORAD_CAT_ID":61954,"ELEMENT_SET_NO":999,"REV_AT_EPOCH":6825,"BSTAR":0.0015691,"MEAN_MOTION_DOT":0.00046392,"MEAN_MOTION_DDOT":0},{"OBJECT_NAME":"STARLINK-32583","OBJECT_ID":"2024-209S","EPOCH":"2026-01-25T21:36:27.141696","MEAN_MOTION":15.30233512,"ECCENTRICITY":0.0004588,"INCLINATION":53.1597,"RA_OF_ASC_NODE":341.296,"ARG_OF_PERICENTER":312.2081,"MEAN_ANOMALY":47.853,"EPHEMERIS_TYPE":0,"CLASSIFICATION_TYPE":"U","NORAD_CAT_ID":61955,"ELEMENT_SET_NO":999,"REV_AT_EPOCH":6836,"BSTAR":0.0015973562,"MEAN_MOTION_DOT":0.00047311,"MEAN_MOTION_DDOT":0},{"OBJECT_NAME":"STARLINK-32273","OBJECT_ID":"2024-209T","EPOCH":"2026-01-25T20:58:28.163712","MEAN_MOTION":15.30234907,"ECCENTRICITY":0.00013878,"INCLINATION":53.1599,"RA_OF_ASC_NODE":341.1306,"ARG_OF_PERICENTER":98.5467,"MEAN_ANOMALY":261.5691,"EPHEMERIS_TYPE":0,"CLASSIFICATION_TYPE":"U","NORAD_CAT_ID":61956,"ELEMENT_SET_NO":999,"REV_AT_EPOCH":6834,"BSTAR":0.0013046435,"MEAN_MOTION_DOT":0.00038523,"MEAN_MOTION_DDOT":0},{"OBJECT_NAME":"STARLINK-32359","OBJECT_ID":"2024-209U","EPOCH":"2026-01-25T21:27:20.530368","MEAN_MOTION":15.30233648,"ECCENTRICITY":0.00011097,"INCLINATION":53.1601,"RA_OF_ASC_NODE":341.2606,"ARG_OF_PERICENTER":89.8396,"MEAN_ANOMALY":270.2732,"EPHEMERIS_TYPE":0,"CLASSIFICATION_TYPE":"U","NORAD_CAT_ID":61957,"ELEMENT_SET_NO":999,"REV_AT_EPOCH":6836,"BSTAR":0.0014316716,"MEAN_MOTION_DOT":0.00042329,"MEAN_MOTION_DDOT":0},{"OBJECT_NAME":"STARLINK-32566","OBJECT_ID":"2024-209V","EPOCH":"2026-01-25T03:39:20.082528","MEAN_MOTION":15.30190435,"ECCENTRICITY":0.00014381,"INCLINATION":53.1613,"RA_OF_ASC_NODE":344.4502,"ARG_OF_PERICENTER":88.2667,"MEAN_ANOMALY":271.8498,"EPHEMERIS_TYPE":0,"CLASSIFICATION_TYPE":"U","NORAD_CAT_ID":61958,"ELEMENT_SET_NO":999,"REV_AT_EPOCH":6825,"BSTAR":0.0013457197,"MEAN_MOTION_DOT":0.00039699,"MEAN_MOTION_DDOT":0},{"OBJECT_NAME":"STARLINK-32499","OBJECT_ID":"2024-210A","EPOCH":"2026-01-25T12:40:38.930304","MEAN_MOTION":15.27588024,"ECCENTRICITY":4.03e-5,"INCLINATION":42.9976,"RA_OF_ASC_NODE":63.1778,"ARG_OF_PERICENTER":98.1242,"MEAN_ANOMALY":261.9656,"EPHEMERIS_TYPE":0,"CLASSIFICATION_TYPE":"U","NORAD_CAT_ID":61959,"ELEMENT_SET_NO":999,"REV_AT_EPOCH":6832,"BSTAR":0.0012012,"MEAN_MOTION_DOT":0.00032949,"MEAN_MOTION_DDOT":0},{"OBJECT_NAME":"STARLINK-32372","OBJECT_ID":"2024-210B","EPOCH":"2026-01-25T11:17:35.866464","MEAN_MOTION":15.27541568,"ECCENTRICITY":0.0001234,"INCLINATION":42.9993,"RA_OF_ASC_NODE":63.6076,"ARG_OF_PERICENTER":38.3966,"MEAN_ANOMALY":321.6974,"EPHEMERIS_TYPE":0,"CLASSIFICATION_TYPE":"U","NORAD_CAT_ID":61960,"ELEMENT_SET_NO":999,"REV_AT_EPOCH":6817,"BSTAR":-0.00056500965,"MEAN_MOTION_DOT":-0.00015759,"MEAN_MOTION_DDOT":0},{"OBJECT_NAME":"STARLINK-32452","OBJECT_ID":"2024-210C","EPOCH":"2026-01-25T11:31:56.691264","MEAN_MOTION":15.27603693,"ECCENTRICITY":0.00018915,"INCLINATION":43.0008,"RA_OF_ASC_NODE":56.7572,"ARG_OF_PERICENTER":77.4406,"MEAN_ANOMALY":282.6658,"EPHEMERIS_TYPE":0,"CLASSIFICATION_TYPE":"U","NORAD_CAT_ID":61961,"ELEMENT_SET_NO":999,"REV_AT_EPOCH":6838,"BSTAR":0.0015378408,"MEAN_MOTION_DOT":0.0004233,"MEAN_MOTION_DDOT":0},{"OBJECT_NAME":"STARLINK-32458","OBJECT_ID":"2024-210D","EPOCH":"2026-01-24T11:23:57.534144","MEAN_MOTION":15.27600926,"ECCENTRICITY":9.334e-5,"INCLINATION":43.0005,"RA_OF_ASC_NODE":55.187,"ARG_OF_PERICENTER":250.3292,"MEAN_ANOMALY":109.7459,"EPHEMERIS_TYPE":0,"CLASSIFICATION_TYPE":"U","NORAD_CAT_ID":61962,"ELEMENT_SET_NO":999,"REV_AT_EPOCH":6831,"BSTAR":0.00066383892,"MEAN_MOTION_DOT":0.00018062,"MEAN_MOTION_DDOT":0},{"OBJECT_NAME":"STARLINK-32487","OBJECT_ID":"2024-210E","EPOCH":"2026-01-25T12:00:07.898688","MEAN_MOTION":15.27619976,"ECCENTRICITY":8.074e-5,"INCLINATION":43.0031,"RA_OF_ASC_NODE":63.8216,"ARG_OF_PERICENTER":279.1141,"MEAN_ANOMALY":80.962,"EPHEMERIS_TYPE":0,"CLASSIFICATION_TYPE":"U","NORAD_CAT_ID":61963,"ELEMENT_SET_NO":999,"REV_AT_EPOCH":6830,"BSTAR":0.0022716226,"MEAN_MOTION_DOT":0.00062859,"MEAN_MOTION_DDOT":0},{"OBJECT_NAME":"STARLINK-32513","OBJECT_ID":"2024-210F","EPOCH":"2026-01-25T01:14:43.159488","MEAN_MOTION":15.27600885,"ECCENTRICITY":6.498e-5,"INCLINATION":42.9996,"RA_OF_ASC_NODE":51.7733,"ARG_OF_PERICENTER":67.2583,"MEAN_ANOMALY":292.8337,"EPHEMERIS_TYPE":0,"CLASSIFICATION_TYPE":"U","NORAD_CAT_ID":61964,"ELEMENT_SET_NO":999,"REV_AT_EPOCH":6840,"BSTAR":0.0011900628,"MEAN_MOTION_DOT":0.00032652,"MEAN_MOTION_DDOT":0},{"OBJECT_NAME":"STARLINK-32514","OBJECT_ID":"2024-210G","EPOCH":"2026-01-25T10:03:19.423584","MEAN_MOTION":15.27589568,"ECCENTRICITY":0.00011222,"INCLINATION":43.0018,"RA_OF_ASC_NODE":57.1555,"ARG_OF_PERICENTER":251.2298,"MEAN_ANOMALY":108.8432,"EPHEMERIS_TYPE":0,"CLASSIFICATION_TYPE":"U","NORAD_CAT_ID":61965,"ELEMENT_SET_NO":999,"REV_AT_EPOCH":6837,"BSTAR":0.0013158171,"MEAN_MOTION_DOT":0.00036134,"MEAN_MOTION_DDOT":0}]
